[{"OBJECT_NAME":"KUIPER-00127","OBJECT_ID":"2025-228K","EPOCH":"2026-03-04T01:39:33.581088","MEAN_MOTION":14.76354665,"ECCENTRICITY":0.0001381,"INCLINATION":51.9012,"RA_OF_ASC_NODE":16.7432,"ARG_OF_PERICENTER":174.4915,"MEAN_ANOMALY":185.6062,"EPHEMERIS_TYPE":0,"CLASSIFICATION_TYPE":"U","NORAD_CAT_ID":65956,"ELEMENT_SET_NO":999,"REV_AT_EPOCH":2252,"BSTAR":0.00071346,"MEAN_MOTION_DOT":4.787e-5,"MEAN_MOTION_DDOT":0},{"OBJECT_NAME":"KUIPER-00128","OBJECT_ID":"2025-228L","EPOCH":"2026-03-04T03:58:41.669184","MEAN_MOTION":14.79850315,"ECCENTRICITY":8.16e-5,"INCLINATION":51.9028,"RA_OF_ASC_NODE":17.5422,"ARG_OF_PERICENTER":98.9151,"MEAN_ANOMALY":261.1904,"EPHEMERIS_TYPE":0,"CLASSIFICATION_TYPE":"U","NORAD_CAT_ID":65957,"ELEMENT_SET_NO":999,"REV_AT_EPOCH":2251,"BSTAR":0.0011028,"MEAN_MOTION_DOT":8.18e-5,"MEAN_MOTION_DDOT":0},{"OBJECT_NAME":"KUIPER-00129","OBJECT_ID":"2025-228M","EPOCH":"2026-03-04T01:40:54.067872","MEAN_MOTION":14.79933439,"ECCENTRICITY":8.71e-5,"INCLINATION":51.9031,"RA_OF_ASC_NODE":12.9523,"ARG_OF_PERICENTER":86.263,"MEAN_ANOMALY":273.8431,"EPHEMERIS_TYPE":0,"CLASSIFICATION_TYPE":"U","NORAD_CAT_ID":65958,"ELEMENT_SET_NO":999,"REV_AT_EPOCH":2257,"BSTAR":8.34e-5,"MEAN_MOTION_DOT":4.15e-6,"MEAN_MOTION_DDOT":0},{"OBJECT_NAME":"KUIPER-00130","OBJECT_ID":"2025-228N","EPOCH":"2026-03-04T02:25:58.437120","MEAN_MOTION":14.79995503,"ECCENTRICITY":0.0001127,"INCLINATION":51.9039,"RA_OF_ASC_NODE":15.321,"ARG_OF_PERICENTER":98.7419,"MEAN_ANOMALY":261.3671,"EPHEMERIS_TYPE":0,"CLASSIFICATION_TYPE":"U","NORAD_CAT_ID":65959,"ELEMENT_SET_NO":999,"REV_AT_EPOCH":1283,"BSTAR":0.0010515,"MEAN_MOTION_DOT":7.816e-5,"MEAN_MOTION_DDOT":0},{"OBJECT_NAME":"KUIPER-00134","OBJECT_ID":"2025-228P","EPOCH":"2026-03-04T01:33:41.654880","MEAN_MOTION":15.38375786,"ECCENTRICITY":0.0004769,"INCLINATION":51.8772,"RA_OF_ASC_NODE":347.625,"ARG_OF_PERICENTER":305.4842,"MEAN_ANOMALY":54.57,"EPHEMERIS_TYPE":0,"CLASSIFICATION_TYPE":"U","NORAD_CAT_ID":65960,"ELEMENT_SET_NO":999,"REV_AT_EPOCH":2292,"BSTAR":0.0013525,"MEAN_MOTION_DOT":0.00051964,"MEAN_MOTION_DDOT":0},{"OBJECT_NAME":"KUIPER-00135","OBJECT_ID":"2025-228Q","EPOCH":"2026-03-04T01:37:01.014240","MEAN_MOTION":14.7992193,"ECCENTRICITY":9.1e-5,"INCLINATION":51.9037,"RA_OF_ASC_NODE":15.5314,"ARG_OF_PERICENTER":81.2062,"MEAN_ANOMALY":278.9003,"EPHEMERIS_TYPE":0,"CLASSIFICATION_TYPE":"U","NORAD_CAT_ID":65961,"ELEMENT_SET_NO":999,"REV_AT_EPOCH":2253,"BSTAR":5.0357e-5,"MEAN_MOTION_DOT":1.63e-6,"MEAN_MOTION_DDOT":0},{"OBJECT_NAME":"KUIPER-00136","OBJECT_ID":"2025-228R","EPOCH":"2026-03-04T02:29:19.354272","MEAN_MOTION":14.79860464,"ECCENTRICITY":0.0001388,"INCLINATION":51.9022,"RA_OF_ASC_NODE":12.8435,"ARG_OF_PERICENTER":99.3632,"MEAN_ANOMALY":260.7488,"EPHEMERIS_TYPE":0,"CLASSIFICATION_TYPE":"U","NORAD_CAT_ID":65962,"ELEMENT_SET_NO":999,"REV_AT_EPOCH":2257,"BSTAR":0.0010509,"MEAN_MOTION_DOT":7.785e-5,"MEAN_MOTION_DDOT":0},{"OBJECT_NAME":"KUIPER-00137","OBJECT_ID":"2025-228S","EPOCH":"2026-03-04T00:57:13.353696","MEAN_MOTION":14.83109409,"ECCENTRICITY":7.37e-5,"INCLINATION":51.9034,"RA_OF_ASC_NODE":10.5966,"ARG_OF_PERICENTER":94.2766,"MEAN_ANOMALY":265.8282,"EPHEMERIS_TYPE":0,"CLASSIFICATION_TYPE":"U","NORAD_CAT_ID":65963,"ELEMENT_SET_NO":999,"REV_AT_EPOCH":2260,"BSTAR":0.0010437,"MEAN_MOTION_DOT":8.369e-5,"MEAN_MOTION_DDOT":0},{"OBJECT_NAME":"KUIPER-00138","OBJECT_ID":"2025-228T","EPOCH":"2026-03-04T03:25:49.756800","MEAN_MOTION":14.79944139,"ECCENTRICITY":7.88e-5,"INCLINATION":51.9008,"RA_OF_ASC_NODE":7.6196,"ARG_OF_PERICENTER":89.0622,"MEAN_ANOMALY":271.0431,"EPHEMERIS_TYPE":0,"CLASSIFICATION_TYPE":"U","NORAD_CAT_ID":65964,"ELEMENT_SET_NO":999,"REV_AT_EPOCH":2265,"BSTAR":0.00069471,"MEAN_MOTION_DOT":5.08e-5,"MEAN_MOTION_DDOT":0},{"OBJECT_NAME":"KUIPER-00140","OBJECT_ID":"2025-228U","EPOCH":"2026-03-04T03:21:58.653216","MEAN_MOTION":14.79916338,"ECCENTRICITY":6.89e-5,"INCLINATION":51.9006,"RA_OF_ASC_NODE":10.2132,"ARG_OF_PERICENTER":94.7569,"MEAN_ANOMALY":265.3472,"EPHEMERIS_TYPE":0,"CLASSIFICATION_TYPE":"U","NORAD_CAT_ID":65965,"ELEMENT_SET_NO":999,"REV_AT_EPOCH":2261,"BSTAR":0.0002017,"MEAN_MOTION_DOT":1.316e-5,"MEAN_MOTION_DDOT":0},{"OBJECT_NAME":"KUIPER-00141","OBJECT_ID":"2025-228V","EPOCH":"2026-03-04T03:30:02.661696","MEAN_MOTION":14.79990573,"ECCENTRICITY":0.0001063,"INCLINATION":51.9037,"RA_OF_ASC_NODE":5.1978,"ARG_OF_PERICENTER":142.8483,"MEAN_ANOMALY":217.2553,"EPHEMERIS_TYPE":0,"CLASSIFICATION_TYPE":"U","NORAD_CAT_ID":65966,"ELEMENT_SET_NO":999,"REV_AT_EPOCH":2268,"BSTAR":0.0071367,"MEAN_MOTION_DOT":0.00054704,"MEAN_MOTION_DDOT":0},{"OBJECT_NAME":"KUIPER-00146","OBJECT_ID":"2025-228W","EPOCH":"2026-03-04T03:30:08.822016","MEAN_MOTION":14.76458504,"ECCENTRICITY":0.0001123,"INCLINATION":51.9044,"RA_OF_ASC_NODE":7.3915,"ARG_OF_PERICENTER":103.6839,"MEAN_ANOMALY":256.4247,"EPHEMERIS_TYPE":0,"CLASSIFICATION_TYPE":"U","NORAD_CAT_ID":65967,"ELEMENT_SET_NO":999,"REV_AT_EPOCH":2265,"BSTAR":0.00078098,"MEAN_MOTION_DOT":5.274e-5,"MEAN_MOTION_DDOT":0},{"OBJECT_NAME":"KUIPER-00149","OBJECT_ID":"2025-228X","EPOCH":"2026-03-04T00:19:10.320960","MEAN_MOTION":14.79949847,"ECCENTRICITY":0.0001676,"INCLINATION":51.903,"RA_OF_ASC_NODE":3.2029,"ARG_OF_PERICENTER":60.3224,"MEAN_ANOMALY":299.7905,"EPHEMERIS_TYPE":0,"CLASSIFICATION_TYPE":"U","NORAD_CAT_ID":65968,"ELEMENT_SET_NO":999,"REV_AT_EPOCH":2270,"BSTAR":0.0010805,"MEAN_MOTION_DOT":8.029e-5,"MEAN_MOTION_DDOT":0},{"OBJECT_NAME":"KUIPER-00154","OBJECT_ID":"2025-228Y","EPOCH":"2026-03-04T02:48:50.178816","MEAN_MOTION":14.79940304,"ECCENTRICITY":6.3e-5,"INCLINATION":51.901,"RA_OF_ASC_NODE":0.2477,"ARG_OF_PERICENTER":114.5611,"MEAN_ANOMALY":245.5417,"EPHEMERIS_TYPE":0,"CLASSIFICATION_TYPE":"U","NORAD_CAT_ID":65969,"ELEMENT_SET_NO":999,"REV_AT_EPOCH":2275,"BSTAR":0.00031687,"MEAN_MOTION_DOT":2.196e-5,"MEAN_MOTION_DDOT":0},{"OBJECT_NAME":"KUIPER-00157","OBJECT_ID":"2025-228Z","EPOCH":"2026-03-04T01:07:44.200704","MEAN_MOTION":14.79962098,"ECCENTRICITY":6.72e-5,"INCLINATION":51.9037,"RA_OF_ASC_NODE":3.1668,"ARG_OF_PERICENTER":49.4009,"MEAN_ANOMALY":310.7012,"EPHEMERIS_TYPE":0,"CLASSIFICATION_TYPE":"U","NORAD_CAT_ID":65970,"ELEMENT_SET_NO":999,"REV_AT_EPOCH":2270,"BSTAR":0.0010267,"MEAN_MOTION_DOT":7.62e-5,"MEAN_MOTION_DDOT":0},{"OBJECT_NAME":"KUIPER-00144","OBJECT_ID":"2025-301A","EPOCH":"2026-03-04T01:35:37.504320","MEAN_MOTION":15.38169933,"ECCENTRICITY":0.0007718,"INCLINATION":51.8683,"RA_OF_ASC_NODE":92.2899,"ARG_OF_PERICENTER":13.5845,"MEAN_ANOMALY":346.5348,"EPHEMERIS_TYPE":0,"CLASSIFICATION_TYPE":"U","NORAD_CAT_ID":67133,"ELEMENT_SET_NO":999,"REV_AT_EPOCH":1287,"BSTAR":0.001224,"MEAN_MOTION_DOT":0.00046666,"MEAN_MOTION_DDOT":0},{"OBJECT_NAME":"KUIPER-00164","OBJECT_ID":"2025-301B","EPOCH":"2026-03-04T02:55:42.184992","MEAN_MOTION":15.19049288,"ECCENTRICITY":0.0003365,"INCLINATION":51.8772,"RA_OF_ASC_NODE":93.3078,"ARG_OF_PERICENTER":53.9282,"MEAN_ANOMALY":306.2008,"EPHEMERIS_TYPE":0,"CLASSIFICATION_TYPE":"U","NORAD_CAT_ID":67134,"ELEMENT_SET_NO":999,"REV_AT_EPOCH":1304,"BSTAR":0.0010451,"MEAN_MOTION_DOT":0.00021938,"MEAN_MOTION_DDOT":0}]
