KUIPER-00127            
1 65956U 25228K   26063.06913867  .00004787  00000+0  71346-3 0  9996
2 65956  51.9012  16.7432 0001381 174.4915 185.6062 14.76354665 22524
KUIPER-00128            
1 65957U 25228L   26063.16576006  .00008180  00000+0  11028-2 0  9999
2 65957  51.9028  17.5422 0000816  98.9151 261.1904 14.79850315 22514
KUIPER-00129            
1 65958U 25228M   26063.07007023  .00000415  00000+0  83400-4 0  9996
2 65958  51.9031  12.9523 0000871  86.2630 273.8431 14.79933439 22573
KUIPER-00130            
1 65959U 25228N   26063.10137080  .00007816  00000+0  10515-2 0  9995
2 65959  51.9039  15.3210 0001127  98.7419 261.3671 14.79995503 12836
KUIPER-00134            
1 65960U 25228P   26063.06506545  .00051964  00000+0  13525-2 0  9995
2 65960  51.8772 347.6250 0004769 305.4842  54.5700 15.38375786 22926
KUIPER-00135            
1 65961U 25228Q   26063.06737285  .00000163  00000+0  50357-4 0  9994
2 65961  51.9037  15.5314 0000910  81.2062 278.9003 14.79921930 22538
KUIPER-00136            
1 65962U 25228R   26063.10369623  .00007785  00000+0  10509-2 0  9997
2 65962  51.9022  12.8435 0001388  99.3632 260.7488 14.79860464 22574
KUIPER-00137            
1 65963U 25228S   26063.03973789  .00008369  00000+0  10437-2 0  9993
2 65963  51.9034  10.5966 0000737  94.2766 265.8282 14.83109409 22603
KUIPER-00138            
1 65964U 25228T   26063.14293700  .00005080  00000+0  69471-3 0  9994
2 65964  51.9008   7.6196 0000788  89.0622 271.0431 14.79944139 22658
KUIPER-00140            
1 65965U 25228U   26063.14026219  .00001316  00000+0  20170-3 0  9995
2 65965  51.9006  10.2132 0000689  94.7569 265.3472 14.79916338 22617
KUIPER-00141            
1 65966U 25228V   26063.14586414  .00054704  00000+0  71367-2 0  9996
2 65966  51.9037   5.1978 0001063 142.8483 217.2553 14.79990573 22686
KUIPER-00146            
1 65967U 25228W   26063.14593544  .00005274  00000+0  78098-3 0  9996
2 65967  51.9044   7.3915 0001123 103.6839 256.4247 14.76458504 22659
KUIPER-00149            
1 65968U 25228X   26063.01331390  .00008029  00000+0  10805-2 0  9994
2 65968  51.9030   3.2029 0001676  60.3224 299.7905 14.79949847 22701
KUIPER-00154            
1 65969U 25228Y   26063.11724744  .00002196  00000+0  31687-3 0  9996
2 65969  51.9010   0.2477 0000630 114.5611 245.5417 14.79940304 22756
KUIPER-00157            
1 65970U 25228Z   26063.04703936  .00007620  00000+0  10267-2 0  9997
2 65970  51.9037   3.1668 0000672  49.4009 310.7012 14.79962098 22709
KUIPER-00144            
1 67133U 25301A   26063.06640630  .00046666  00000+0  12240-2 0  9991
2 67133  51.8683  92.2899 0007718  13.5845 346.5348 15.38169933 12870
KUIPER-00164            
1 67134U 25301B   26063.12201603  .00021938  00000+0  10451-2 0  9999
2 67134  51.8772  93.3078 0003365  53.9282 306.2008 15.19049288 13043
